STARLINK-5477           
1 55659U 23021AH  24149.93141456  .00000270  00000+0  30452-4 0  9997
2 55659  70.0000   2.8659 0003074 268.4353  91.6454 14.98334695 71957
STARLINK-5467           
1 55660U 23021AJ  24149.90349827 -.00000558  00000+0 -38102-4 0  9999
2 55660  70.0003   2.7751 0002775 265.1627  94.9216 14.99142529 71955
STARLINK-5475           
1 55661U 23021AK  24149.91471379 -.00001069  00000+0 -81810-4 0  9991
2 55661  70.0000   2.8073 0003149 270.6774  89.4025 14.98337630 71956
STARLINK-5479           
1 55662U 23021AL  24149.93976408 -.00000213  00000+0 -10095-4 0  9994
2 55662  70.0001   2.9075 0002948 267.4200  92.6621 14.98333267 71955
STARLINK-5473           
1 55663U 23021AM  24149.90636840  .00000049  00000+0  11898-4 0  9992
2 55663  70.0007   2.7785 0002709 261.3189  98.7663 14.98335435 71954
STARLINK-5480           
1 55664U 23021AN  24149.92306384  .00000569  00000+0  55442-4 0  9992
2 55664  70.0006   2.8364 0003285 261.9977  98.0810 14.98335470 71955
STARLINK-5474           
1 55665U 23021AP  24150.56980168 -.00001008  00000+0 -76712-4 0  9997
2 55665  69.9997   1.0797 0003039 272.0776  88.0035 14.98332577 71751
STARLINK-5456           
1 55667U 23021AR  24150.03170705  .00007187  00000+0  60918-3 0  9991
2 55667  70.0016   2.4116 0003278 271.9949  88.0835 14.98351814 71677
STARLINK-5455           
1 55668U 23021AS  24149.91889305 -.00000067  00000+0  21532-5 0  9992
2 55668  70.0004   2.8223 0002850 262.1634  97.9201 14.98332414 71958
STARLINK-5459           
1 55669U 23021AT  24149.91054297  .00000165  00000+0  21591-4 0  9999
2 55669  70.0006   2.7928 0002816 261.3799  98.7041 14.98335236 71953
STARLINK-5423           
1 55670U 23021AU  24150.03154123  .00000038  00000+0  10982-4 0  9996
2 55670  70.0008   2.4123 0002795 260.5807  99.5036 14.98333110 71679
STARLINK-5460           
1 55671U 23021AV  24150.21114206  .00005981  00000+0  50846-3 0  9999
2 55671  70.0010   2.2256 0003306 270.6536  89.4244 14.98339689 71696
STARLINK-5461           
1 55672U 23021AW  24150.55811950  .00005195  00000+0  39212-3 0  9998
2 55672  70.0004 359.8345 0005854 230.1053 129.9594 15.03001017 71781
STARLINK-5463           
1 55673U 23021AX  24149.82708769  .00000055  00000+0  12420-4 0  9993
2 55673  70.0008   2.9009 0002700 271.3197  88.7652 14.98332376 71945
STARLINK-5462           
1 55674U 23021AY  24149.88549829  .00000259  00000+0  29472-4 0  9991
2 55674  69.9998   2.7040 0003161 267.3964  92.6833 14.98332470 71651
STARLINK-5232           
1 55675U 23021AZ  24149.94390183 -.00002660  00000+0 -21520-3 0  9991
2 55675  70.0006   2.5080 0003390 268.1389  91.9382 14.98326349 71964
STARLINK-5300           
1 55676U 23021BA  24149.90197178  .00000701  00000+0  66515-4 0  9993
2 55676  69.9995 342.8881 0003134 263.5226  96.5577 14.98332932 72449
STARLINK-5324           
1 55677U 23021BB  24149.88109897 -.00000388  00000+0 -24681-4 0  9993
2 55677  70.0001 342.8134 0003045 267.5543  92.5267 14.98333864 72143
STARLINK-5314           
1 55678U 23021BC  24149.88967513  .00001782  00000+0  15709-3 0  9998
2 55678  70.0000   2.7164 0003205 268.6107  91.4685 14.98343130 71658
STARLINK-30050          
1 55695U 23026A   24149.79265472 -.00002176  00000+0 -11717-4 0  9993
2 55695  43.0019  48.7521 0001660 270.8436  89.2243 15.73821349 72964
STARLINK-30040          
1 55697U 23026C   24150.06320715  .00001277  00000+0  13725-4 0  9999
2 55697  43.0013  41.9136 0001561 282.3318  77.7374 15.70308238 72831
STARLINK-30055          
1 55699U 23026E   24150.25001157  .00257048  00000+0  13319-2 0  9994
2 55699  42.9990  51.7326 0002036 263.9154  34.8476 15.79521668 72803
STARLINK-30064          
1 55700U 23026F   24150.12568271 -.00011262  00000+0 -82697-4 0  9993
2 55700  42.9981  53.2662 0002549 217.2876 142.7815 15.71308900 72774
STARLINK-30065          
1 55701U 23026G   24150.11501558  .00002191  00000+0  20147-4 0  9999
2 55701  42.9981  53.1959 0001383 261.3370  98.7341 15.71360726 72775
STARLINK-30051          
1 55704U 23026K   24150.58335648  .00377777  60972-4  12008-2 0  9997
2 55704  42.9965  81.1876 0010102 210.0834 231.7364 15.90291032 72491
STARLINK-30057          
1 55705U 23026L   24150.10678733 -.00004474  00000+0 -29564-4 0  9992
2 55705  43.0006  53.1271 0001914 266.1900  93.8750 15.72201350 72776
STARLINK-30060          
1 55707U 23026N   24150.12675112  .00003488  00000+0  30032-4 0  9998
2 55707  42.9996  53.2883 0001512 275.4257  84.6438 15.71353458 72773
STARLINK-30047          
1 55709U 23026Q   24150.25001157  .00133300  00000+0  96286-3 0  9995
2 55709  42.9986  52.2986 0008507 249.4303 186.8791 15.72296564 72795
STARLINK-30046          
1 55710U 23026R   24149.91668981 -.01212148  00000+0 -83199-2 0  9991
2 55710  42.9987  54.2005 0001474 264.1123 123.0454 15.76589074  6030
STARLINK-30037          
1 55712U 23026T   24150.08004712  .00001828  00000+0  16672-4 0  9991
2 55712  43.0010  47.4886 0001583 266.4036  93.6651 15.72409056 72830
STARLINK-30063          
1 55713U 23026U   24149.85280194  .00017607  00000+0  13166-3 0  9991
2 55713  42.9987  53.7686 0002002 246.2121 113.8538 15.72374725 72741
STARLINK-5592           
1 55741U 23028A   24150.15765838  .00004453  00000+0  38078-3 0  9996
2 55741  69.9996  82.2754 0003213 267.7647  92.3144 14.98329779 68734
STARLINK-5594           
1 55742U 23028B   24149.89479110 -.00001090  00000+0 -83548-4 0  9990
2 55742  69.9999  82.9652 0002725 264.8848  95.2000 14.98341035 68709
STARLINK-5602           
1 55743U 23028C   24149.89896558  .00003038  00000+0  26220-3 0  9995
2 55743  70.0015  82.9799 0002741 273.3869  86.6976 14.98337755 68700
STARLINK-5601           
1 55744U 23028D   24150.22875583 -.00001261  00000+0 -97915-4 0  9998
2 55744  70.0003  82.1228 0002776 265.3613  94.7229 14.98339428 68758
STARLINK-5565           
1 55745U 23028E   24150.17017547  .00000543  00000+0  53253-4 0  9998
2 55745  69.9999  82.3199 0002942 268.2768  91.8054 14.98334094 68744
STARLINK-5579           
1 55746U 23028F   24149.93232787  .00000551  00000+0  53942-4 0  9990
2 55746  70.0005  82.6944 0002883 260.6175  99.4658 14.98335087 68713
STARLINK-5539           
1 55747U 23028G   24150.14930674 -.00000375  00000+0 -23620-4 0  9992
2 55747  69.9998  82.2453 0002903 266.2598  93.8229 14.98334417 68748
STARLINK-5580           
1 55748U 23028H   24149.94486673  .00001795  00000+0  15817-3 0  9997
2 55748  69.9990  82.7363 0002964 267.1589  92.9231 14.98333231 68716
STARLINK-5560           
1 55749U 23028J   24150.20354552  .00000262  00000+0  29741-4 0  9999
2 55749  70.0008  82.0360 0002512 249.6955 110.3934 14.98335141 68752
STARLINK-5573           
1 55750U 23028K   24149.94067837 -.00000031  00000+0  52239-5 0  9991
2 55750  70.0001  82.7223 0002721 256.5691 103.5165 14.98334317 68718
STARLINK-5577           
1 55751U 23028L   24149.88643845  .00002075  00000+0  18170-3 0  9997
2 55751  69.9992  82.9332 0003099 259.6979 100.3830 14.98318256 68707
STARLINK-5613           
1 55752U 23028M   24149.91563616  .00000670  00000+0  63926-4 0  9998
2 55752  70.0007  82.6351 0002576 270.1490  89.9374 14.98337397 68714
STARLINK-5617           
1 55753U 23028N   24150.19953398  .00000203  00000+0  24794-4 0  9993
2 55753  70.0003  82.0220 0002716 254.0743 106.0117 14.98333513 68754
STARLINK-5612           
1 55754U 23028P   24150.19101964  .00002271  00000+0  19807-3 0  9993
2 55754  70.0001  81.9913 0002787 268.3482  91.7358 14.98321248 68755
STARLINK-5619           
1 55755U 23028Q   24150.17866434  .00000077  00000+0  14266-4 0  9999
2 55755  70.0007  81.9406 0002742 269.1051  90.9794 14.98331528 68758
STARLINK-5614           
1 55756U 23028R   24150.17432366 -.00000007  00000+0  72342-5 0  9997
2 55756  70.0001  81.9317 0003105 254.6623 105.4193 14.98338213 68755
STARLINK-5544           
1 55757U 23028S   24149.92815742  .00000377  00000+0  39418-4 0  9997
2 55757  70.0007  82.6812 0002854 261.7420  98.3415 14.98330868 68715
STARLINK-5072           
1 55758U 23028T   24150.25358811 -.00008432  00000+0 -69899-3 0  9992
2 55758  70.0002  81.8083 0002633 271.2322  88.8536 14.98373439 68768
STARLINK-5081           
1 55759U 23028U   24149.91958531  .00004976  00000+0  42446-3 0  9995
2 55759  70.0010  62.8121 0003273 266.7407  93.3377 14.98334987 69203
STARLINK-5532           
1 55760U 23028V   24150.17174065  .00000636  00000+0  59917-4 0  9990
2 55760  70.0002  81.9240 0003176 265.7808  94.2988 14.99141756 68743
STARLINK-5611           
1 55761U 23028W   24149.88220499 -.00002736  00000+0 -22163-3 0  9997
2 55761  70.0008  63.0397 0003028 267.3232  92.7580 14.98323296 69190
STARLINK-5603           
1 55762U 23028X   24150.47036407 -.00000826  00000+0 -61410-4 0  9996
2 55762  69.9999  61.4817 0002865 273.5121  86.5711 14.98326509 69287
STARLINK-5593           
1 55763U 23028Y   24149.91145983  .00000031  00000+0  10418-4 0  9992
2 55763  70.0005  82.6200 0002704 271.9271  88.1578 14.98332350 68717
STARLINK-5499           
1 55764U 23028Z   24150.20749476  .00001034  00000+0  94416-4 0  9998
2 55764  70.0004  62.1697 0003019 265.9631  94.1183 14.98332363 69245
STARLINK-5595           
1 55765U 23028AA  24149.94463044 -.00000297  00000+0 -17133-4 0  9995
2 55765  70.0012  62.8582 0002775 259.4422 100.6425 14.98330829 69202
STARLINK-5599           
1 55766U 23028AB  24150.19096051  .00000621  00000+0  59832-4 0  9996
2 55766  70.0004  62.1088 0002847 271.1053  88.9780 14.98335765 69238
STARLINK-5606           
1 55767U 23028AC  24150.48289148  .00003802  00000+0  32646-3 0  9997
2 55767  70.0001  61.5264 0002903 269.3788  90.7038 14.98308299 69275
STARLINK-5583           
1 55768U 23028AD  24149.93210616 -.00000348  00000+0 -21379-4 0  9996
2 55768  70.0006  62.8114 0002779 258.3517 101.7331 14.98330952 69201
